{
  "type": "FeatureCollection",
  "features": [
    {
      "type": "Feature",
      "properties": {
        "norad_id": 66768,
        "name": "TRANSPORTER-15DG",
        "group": "last-30-days",
        "lat": 67.38242854222139,
        "lon": 54.70272455907944,
        "alt_km": 502.123502613189,
        "timestamp": "2025-12-27T10:28:57.514868+00:00",
        "meta_object_name": "TRANSPORTER-15DG",
        "meta_object_id": "2025-276DG",
        "meta_epoch": "2025-12-27T03:51:22.231872",
        "meta_mean_motion": 15.18592494,
        "meta_eccentricity": 0.0002053,
        "meta_inclination": 97.435,
        "meta_ra_of_asc_node": 72.6985,
        "meta_arg_of_pericenter": 72.0361,
        "meta_mean_anomaly": 288.1097,
        "meta_ephemeris_type": 0,
        "meta_classification_type": "U",
        "meta_norad_cat_id": 66768,
        "meta_element_set_no": 999,
        "meta_rev_at_epoch": 431,
        "meta_bstar": 0.00053373,
        "meta_mean_motion_dot": 0.00010979,
        "meta_mean_motion_ddot": 0,
        "tle_line1": "1 66768U 25276DG  25361.16067398  .00010979  00000+0  53373-3 0  9991",
        "tle_line2": "2 66768  97.4350  72.6985 0002053  72.0361 288.1097 15.18592494  4310"
      },
      "geometry": {
        "type": "Point",
        "coordinates": [
          54.70272455907944,
          67.38242854222139
        ]
      }
    },
    {
      "type": "Feature",
      "properties": {
        "norad_id": 66769,
        "name": "TRANSPORTER-15DH",
        "group": "last-30-days",
        "lat": 60.76838593364377,
        "lon": 59.48235262850904,
        "alt_km": 503.13060086658425,
        "timestamp": "2025-12-27T10:28:57.514878+00:00",
        "meta_object_name": "TRANSPORTER-15DH",
        "meta_object_id": "2025-276DH",
        "meta_epoch": "2025-12-27T03:53:09.353184",
        "meta_mean_motion": 15.18458714,
        "meta_eccentricity": 0.0002717,
        "meta_inclination": 97.441,
        "meta_ra_of_asc_node": 72.7181,
        "meta_arg_of_pericenter": 100.2861,
        "meta_mean_anomaly": 259.868,
        "meta_ephemeris_type": 0,
        "meta_classification_type": "U",
        "meta_norad_cat_id": 66769,
        "meta_element_set_no": 999,
        "meta_rev_at_epoch": 431,
        "meta_bstar": 0.00037123,
        "meta_mean_motion_dot": 7.584e-05,
        "meta_mean_motion_ddot": 0,
        "tle_line1": "1 66769U 25276DH  25361.16191381  .00007584  00000+0  37123-3 0  9995",
        "tle_line2": "2 66769  97.4410  72.7181 0002717 100.2861 259.8680 15.18458714  4312"
      },
      "geometry": {
        "type": "Point",
        "coordinates": [
          59.48235262850904,
          60.76838593364377
        ]
      }
    },
    {
      "type": "Feature",
      "properties": {
        "norad_id": 66770,
        "name": "TRANSPORTER-15DJ",
        "group": "last-30-days",
        "lat": 62.05054219052518,
        "lon": 58.73415528779308,
        "alt_km": 503.15619879087626,
        "timestamp": "2025-12-27T10:28:57.514888+00:00",
        "meta_object_name": "TRANSPORTER-15DJ",
        "meta_object_id": "2025-276DJ",
        "meta_epoch": "2025-12-27T03:52:47.542368",
        "meta_mean_motion": 15.18416469,
        "meta_eccentricity": 0.0003336,
        "meta_inclination": 97.4442,
        "meta_ra_of_asc_node": 72.73,
        "meta_arg_of_pericenter": 115.0078,
        "meta_mean_anomaly": 245.1503,
        "meta_ephemeris_type": 0,
        "meta_classification_type": "U",
        "meta_norad_cat_id": 66770,
        "meta_element_set_no": 999,
        "meta_rev_at_epoch": 431,
        "meta_bstar": 0.00032456,
        "meta_mean_motion_dot": 6.613e-05,
        "meta_mean_motion_ddot": 0,
        "tle_line1": "1 66770U 25276DJ  25361.16166137  .00006613  00000+0  32456-3 0  9994",
        "tle_line2": "2 66770  97.4442  72.7300 0003336 115.0078 245.1503 15.18416469  4317"
      },
      "geometry": {
        "type": "Point",
        "coordinates": [
          58.73415528779308,
          62.05054219052518
        ]
      }
    },
    {
      "type": "Feature",
      "properties": {
        "norad_id": 66771,
        "name": "TRANSPORTER-15DK",
        "group": "last-30-days",
        "lat": 65.73674337967448,
        "lon": 56.13826691645702,
        "alt_km": 502.2833919982304,
        "timestamp": "2025-12-27T10:28:57.514900+00:00",
        "meta_object_name": "TRANSPORTER-15DK",
        "meta_object_id": "2025-276DK",
        "meta_epoch": "2025-12-27T03:51:48.401568",
        "meta_mean_motion": 15.18522492,
        "meta_eccentricity": 0.0003042,
        "meta_inclination": 97.4436,
        "meta_ra_of_asc_node": 72.7282,
        "meta_arg_of_pericenter": 107.2005,
        "meta_mean_anomaly": 252.9562,
        "meta_ephemeris_type": 0,
        "meta_classification_type": "U",
        "meta_norad_cat_id": 66771,
        "meta_element_set_no": 999,
        "meta_rev_at_epoch": 431,
        "meta_bstar": 0.00043217,
        "meta_mean_motion_dot": 8.857e-05,
        "meta_mean_motion_ddot": 0,
        "tle_line1": "1 66771U 25276DK  25361.16097687  .00008857  00000+0  43217-3 0  9997",
        "tle_line2": "2 66771  97.4436  72.7282 0003042 107.2005 252.9562 15.18522492  4312"
      },
      "geometry": {
        "type": "Point",
        "coordinates": [
          56.13826691645702,
          65.73674337967448
        ]
      }
    },
    {
      "type": "Feature",
      "properties": {
        "norad_id": 66772,
        "name": "TRANSPORTER-15DL",
        "group": "last-30-days",
        "lat": 79.98226662138069,
        "lon": 25.267622745026333,
        "alt_km": 500.21942402154036,
        "timestamp": "2025-12-27T10:28:57.514910+00:00",
        "meta_object_name": "TRANSPORTER-15DL",
        "meta_object_id": "2025-276DL",
        "meta_epoch": "2025-12-27T03:47:32.961696",
        "meta_mean_motion": 15.18760259,
        "meta_eccentricity": 0.0002892,
        "meta_inclination": 97.4427,
        "meta_ra_of_asc_node": 72.7285,
        "meta_arg_of_pericenter": 93.3885,
        "meta_mean_anomaly": 266.768,
        "meta_ephemeris_type": 0,
        "meta_classification_type": "U",
        "meta_norad_cat_id": 66772,
        "meta_element_set_no": 999,
        "meta_rev_at_epoch": 431,
        "meta_bstar": 0.00068708,
        "meta_mean_motion_dot": 0.00014229,
        "meta_mean_motion_ddot": 0,
        "tle_line1": "1 66772U 25276DL  25361.15802039  .00014229  00000+0  68708-3 0  9994",
        "tle_line2": "2 66772  97.4427  72.7285 0002892  93.3885 266.7680 15.18760259  4318"
      },
      "geometry": {
        "type": "Point",
        "coordinates": [
          25.267622745026333,
          79.98226662138069
        ]
      }
    },
    {
      "type": "Feature",
      "properties": {
        "norad_id": 66773,
        "name": "TRANSPORTER-15DM",
        "group": "last-30-days",
        "lat": 72.41491230411863,
        "lon": 48.63901736950111,
        "alt_km": 501.12526953434735,
        "timestamp": "2025-12-27T10:28:57.514922+00:00",
        "meta_object_name": "TRANSPORTER-15DM",
        "meta_object_id": "2025-276DM",
        "meta_epoch": "2025-12-27T03:49:56.174880",
        "meta_mean_motion": 15.18581738,
        "meta_eccentricity": 0.0003133,
        "meta_inclination": 97.4423,
        "meta_ra_of_asc_node": 72.7252,
        "meta_arg_of_pericenter": 94.5537,
        "meta_mean_anomaly": 265.6055,
        "meta_ephemeris_type": 0,
        "meta_classification_type": "U",
        "meta_norad_cat_id": 66773,
        "meta_element_set_no": 999,
        "meta_rev_at_epoch": 431,
        "meta_bstar": 0.00061391,
        "meta_mean_motion_dot": 0.00012638,
        "meta_mean_motion_ddot": 0,
        "tle_line1": "1 66773U 25276DM  25361.15967795  .00012638  00000+0  61391-3 0  9999",
        "tle_line2": "2 66773  97.4423  72.7252 0003133  94.5537 265.6055 15.18581738  4312"
      },
      "geometry": {
        "type": "Point",
        "coordinates": [
          48.63901736950111,
          72.41491230411863
        ]
      }
    },
    {
      "type": "Feature",
      "properties": {
        "norad_id": 66774,
        "name": "TRANSPORTER-15DN",
        "group": "last-30-days",
        "lat": 75.69884078605455,
        "lon": 42.15134570919432,
        "alt_km": 500.76500745938756,
        "timestamp": "2025-12-27T10:28:57.514932+00:00",
        "meta_object_name": "TRANSPORTER-15DN",
        "meta_object_id": "2025-276DN",
        "meta_epoch": "2025-12-27T03:48:58.316256",
        "meta_mean_motion": 15.18645511,
        "meta_eccentricity": 0.0002971,
        "meta_inclination": 97.4409,
        "meta_ra_of_asc_node": 72.7212,
        "meta_arg_of_pericenter": 92.0732,
        "meta_mean_anomaly": 268.0843,
        "meta_ephemeris_type": 0,
        "meta_classification_type": "U",
        "meta_norad_cat_id": 66774,
        "meta_element_set_no": 999,
        "meta_rev_at_epoch": 431,
        "meta_bstar": 0.00048412,
        "meta_mean_motion_dot": 9.967e-05,
        "meta_mean_motion_ddot": 0,
        "tle_line1": "1 66774U 25276DN  25361.15900829  .00009967  00000+0  48412-3 0  9995",
        "tle_line2": "2 66774  97.4409  72.7212 0002971  92.0732 268.0843 15.18645511  4314"
      },
      "geometry": {
        "type": "Point",
        "coordinates": [
          42.15134570919432,
          75.69884078605455
        ]
      }
    }
  ]
}